*******************************************************************************
 Revised: Jul 31, 2013          Mars Barycenter                               4
 
 Dynamical point:
 ---------------
 The common center of mass about which the Martian system (planet and
 satellites Phobos and Deimos) revolve.
*******************************************************************************
 
 
*******************************************************************************
Ephemeris / WWW_USER Mon Jan 15 15:29:37 2018 Pasadena, USA      / Horizons    
*******************************************************************************
Target body name: Mars Barycenter (4)             {source: DE431mx}
Center body name: Solar System Barycenter (0)     {source: DE431mx}
Center-site name: BODY CENTER
*******************************************************************************
Start time      : A.D. 2014-Jan-05 00:00:00.0000 TDB
Stop  time      : A.D. 2018-Jan-25 00:00:00.0000 TDB
Step-size       : 1440 minutes
*******************************************************************************
Center geodetic : 0.00000000,0.00000000,0.0000000 {E-lon(deg),Lat(deg),Alt(km)}
Center cylindric: 0.00000000,0.00000000,0.0000000 {E-lon(deg),Dxy(km),Dz(km)}
Center radii    : (undefined)                                                  
Output units    : AU-D                                                         
Output type     : GEOMETRIC cartesian states
Output format   : 3 (position, velocity, LT, range, range-rate)
Reference frame : ICRF/J2000.0                                                 
Coordinate systm: Ecliptic and Mean Equinox of Reference Epoch                 
*******************************************************************************
JDTDB
   X     Y     Z
   VX    VY    VZ
   LT    RG    RR
*******************************************************************************
$$SOE
2457634.500000000 = A.D. 2016-Sep-03 00:00:00.0000 TDB 
 X = 7.189553892028457E-01 Y =-1.203736379754680E+00 Z =-4.300706443606327E-02
 VX= 1.256502109767027E-02 VY= 8.344164836543667E-03 VZ=-1.336694872217514E-04
 LT= 8.101649859437079E-03 RG= 1.402757188967544E+00 RR=-7.162582480074841E-04
2457635.500000000 = A.D. 2016-Sep-04 00:00:00.0000 TDB 
 X = 7.314818859751819E-01 Y =-1.195327750621201E+00 Z =-4.313843752553596E-02
 VX= 1.248772803092107E-02 VY= 8.472978077750883E-03 VZ=-1.290731106496434E-04
 LT= 8.097546740185629E-03 RG= 1.402046755891933E+00 RR=-7.045920249563906E-04
2457636.500000000 = A.D. 2016-Sep-05 00:00:00.0000 TDB 
 X = 7.439303573774799E-01 Y =-1.186790657539175E+00 Z =-4.326520358618698E-02
 VX= 1.240897131289508E-02 VY= 8.601089499656432E-03 VZ=-1.244555207901882E-04
 LT= 8.093511273300252E-03 RG= 1.401348036460396E+00 RR=-6.928311744522452E-04
2457637.500000000 = A.D. 2016-Sep-06 00:00:00.0000 TDB 
 X = 7.562993426761524E-01 Y =-1.178125812026112E+00 Z =-4.338734167955748E-02
 VX= 1.232875683079065E-02 VY= 8.728479709775255E-03 VZ=-1.198172684904747E-04
 LT= 8.089544001561215E-03 RG= 1.400661124652421E+00 RR=-6.809769966028828E-04
2457638.500000000 = A.D. 2016-Sep-07 00:00:00.0000 TDB 
 X = 7.685873871804295E-01 Y =-1.169333944979212E+00 Z =-4.350483142158829E-02
 VX= 1.224709078320027E-02 VY= 8.855129342218514E-03 VZ=-1.151589116847247E-04
 LT= 8.085645460167721E-03 RG= 1.399986113134879E+00 RR=-6.690308165123621E-04
2457639.500000000 = A.D. 2016-Sep-08 00:00:00.0000 TDB 
 X = 7.807930425541972E-01 Y =-1.160415806645755E+00 Z =-4.361765298965409E-02
 VX= 1.216397968097617E-02 VY= 8.981019063714115E-03 VZ=-1.104810152895031E-04
 LT= 8.081816176594068E-03 RG= 1.399323093237113E+00 RR=-6.569939840914723E-04
2457640.500000000 = A.D. 2016-Sep-09 00:00:00.0000 TDB 
 X = 7.929148671286335E-01 Y =-1.151372166587458E+00 Z =-4.372578712949223E-02
 VX= 1.207943034796041E-02 VY= 9.106129579678842E-03 VZ=-1.057841510944403E-04
 LT= 8.078056670446981E-03 RG= 1.398672154926239E+00 RR=-6.448678738538921E-04
2457641.500000000 = A.D. 2016-Sep-10 00:00:00.0000 TDB 
 X = 8.049514262155061E-01 Y =-1.142203813638731E+00 Z =-4.382921516201883E-02
 VX= 1.199344992157700E-02 VY= 9.230441640338680E-03 VZ=-1.010688976484839E-04
 LT= 8.074367453324122E-03 RG= 1.398033386782647E+00 RR=-6.326538846981202E-04
2457642.500000000 = A.D. 2016-Sep-11 00:00:00.0000 TDB 
 X = 8.169012924209914E-01 Y =-1.132911555858784E+00 Z =-4.392791899002990E-02
 VX= 1.190604585328392E-02 VY= 9.353936046893781E-03 VZ=-9.633584014170503E-05
 LT= 8.070749028673939E-03 RG= 1.397406875975731E+00 RR=-6.203534396751105E-04
2457643.500000000 = A.D. 2016-Sep-12 00:00:00.0000 TDB 
 X = 8.287630459598765E-01 Y =-1.123496220477556E+00 Z =-4.402188110478058E-02
 VX= 1.181722590888284E-02 VY= 9.476593657724536E-03 VZ=-9.158557028269131E-05
 LT= 8.067201891656852E-03 RG= 1.396792708239863E+00 RR=-6.079679857418482E-04
2457644.500000000 = A.D. 2016-Sep-13 00:00:00.0000 TDB 
 X = 8.405352749699964E-01 Y =-1.113958653835416E+00 Z =-4.411108459244162E-02
 VX= 1.172699816868432E-02 VY= 9.598395394635124E-03 VZ=-8.681868617157185E-05
 LT= 8.063726529007957E-03 RG= 1.396190967850609E+00 RR=-5.954989935009562E-04
2457645.500000000 = A.D. 2016-Sep-14 00:00:00.0000 TDB 
 X = 8.522165758267652E-01 Y =-1.104299721316603E+00 Z =-4.419551314042509E-02
 VX= 1.163537102752671E-02 VY= 9.719322249130878E-03 VZ=-8.203579216874673E-05
 LT= 8.060323418901219E-03 RG= 1.395601737601229E+00 RR=-5.829479569266625E-04
2457646.500000000 = A.D. 2016-Sep-15 00:00:00.0000 TDB 
 X = 8.638055534576518E-01 Y =-1.094520307276370E+00 Z =-4.427515104357712E-02
 VX= 1.154235319464665E-02 VY= 9.839355288725751E-03 VZ=-7.723749875936549E-05
 LT= 8.056993030815328E-03 RG= 1.395025098779434E+00 RR=-5.703163930773384E-04
2457647.500000000 = A.D. 2016-Sep-16 00:00:00.0000 TDB 
 X = 8.753008216564504E-01 Y =-1.084621314961818E+00 Z =-4.434998321023345E-02
 VX= 1.144795369339944E-02 VY= 9.958475663276206E-03 VZ=-7.242442241366187E-05
 LT= 8.053735825401240E-03 RG= 1.394461131144467E+00 RR=-5.576058417950700E-04
2457648.500000000 = A.D. 2016-Sep-17 00:00:00.0000 TDB 
 X = 8.867010033971967E-01 Y =-1.074603666426370E+00 Z =-4.441999516813293E-02
 VX= 1.135218186082766E-02 VY= 1.007666461133771E-02 VZ=-6.759718544322327E-05
 LT= 8.050552254351475E-03 RG= 1.393909912904464E+00 RR=-5.448178653926364E-04
2457649.500000000 = A.D. 2016-Sep-18 00:00:00.0000 TDB 
 X = 8.980047311475797E-01 Y =-1.064468302437892E+00 Z =-4.448517307018467E-02
 VX= 1.125504734708847E-02 VY= 1.019390346653417E-02 VZ=-6.275641585195939E-05
 LT= 8.047442760271304E-03 RG= 1.393371520694150E+00 RR=-5.319540483159950E-04
2457650.500000000 = A.D. 2016-Sep-19 00:00:00.0000 TDB 
 X = 9.092106471816975E-01 Y =-1.054216182380427E+00 Z =-4.454550370008516E-02
 VX= 1.115656011470409E-02 VY= 1.031017366394953E-02 VZ=-5.790274718527422E-05
 LT= 8.044407776551884E-03 RG= 1.392846029552878E+00 RR=-5.190159968144893E-04
2457651.500000000 = A.D. 2016-Sep-20 00:00:00.0000 TDB 
 X = 9.203174038919912E-01 Y =-1.043848284149543E+00 Z =-4.460097447778193E-02
 VX= 1.105673043767800E-02 VY= 1.042545674652325E-02 VZ=-5.303681837311286E-05
 LT= 8.041447727245339E-03 RG= 1.392333512902999E+00 RR=-5.060053385805706E-04
2457652.500000000 = A.D. 2016-Sep-21 00:00:00.0000 TDB 
 X = 9.313236641002155E-01 Y =-1.033365604041270E+00 Z =-4.465157346477826E-02
 VX= 1.095556890044619E-02 VY= 1.053973437145219E-02 VZ=-4.815927357027419E-05
 LT= 8.038563026941998E-03 RG= 1.391834042528602E+00 RR=-4.929237223829247E-04
2457653.500000000 = A.D. 2016-Sep-22 00:00:00.0000 TDB 
 X = 9.422281013672822E-01 Y =-1.022769156634646E+00 Z =-4.469728936927654E-02
 VX= 1.085308639667290E-02 VY= 1.065298831659431E-02 VZ=-4.327076199252645E-05
 LT= 8.035754080649731E-03 RG= 1.391347688554625E+00 RR=-4.797728176866788E-04
2457654.500000000 = A.D. 2016-Sep-23 00:00:00.0000 TDB 
 X = 9.530294003018204E-01 Y =-1.012059974667853E+00 Z =-4.473811155115563E-02
 VX= 1.074929412788887E-02 VY= 1.076520048686886E-02 VZ=-3.837193774895766E-05
 LT= 8.033021283675558E-03 RG= 1.390874519426359E+00 RR=-4.665543142606658E-04
2457655.500000000 = A.D. 2016-Sep-24 00:00:00.0000 TDB 
 X = 9.637262568672967E-01 Y =-1.001239108907960E+00 Z =-4.477403002677900E-02
 VX= 1.064420360197147E-02 VY= 1.087635292064858E-02 VZ=-3.346345967063062E-05
 LT= 8.030365021509561E-03 RG= 1.390414601889341E+00 RR=-4.532699217721361E-04
2457656.500000000 = A.D. 2016-Sep-25 00:00:00.0000 TDB 
 X = 9.743173786875358E-01 Y =-9.903076280142766E-01 Z =-4.480503547362948E-02
 VX= 1.053782663146619E-02 VY= 1.098642779613959E-02 VZ=-2.854599113563996E-05
 LT= 8.027785669711136E-03 RG= 1.389968000969665E+00 RR=-4.399213693690974E-04
2457657.500000000 = A.D. 2016-Sep-26 00:00:00.0000 TDB 
 X = 9.848014853504823E-01 Y =-9.792666183953378E-01 Z =-4.483111923476706E-02
 VX= 1.043017533174910E-02 VY= 1.109540743774446E-02 VZ=-2.362019989063284E-05
 LT= 8.025283593797727E-03 RG= 1.389534779954715E+00 RR=-4.265104052506646E-04
2457658.500000000 = A.D. 2016-Sep-27 00:00:00.0000 TDB 
 X = 9.951773087100476E-01 Y =-9.681171840595344E-01 Z =-4.485227332310735E-02
 VX= 1.032126211903005E-02 VY= 1.120327432240405E-02 VZ=-1.868675786891171E-05
 LT= 8.022859149136077E-03 RG= 1.389115000374334E+00 RR=-4.130387962256099E-04
2457659.500000000 = A.D. 2016-Sep-28 00:00:00.0000 TDB 
 X = 1.005443593185878E+00 Y =-9.568604464594147E-01 Z =-4.486849042551514E-02
 VX= 1.021109970819666E-02 VY= 1.131001108591336E-02 VZ=-1.374634100519311E-05
 LT= 8.020512680836029E-03 RG= 1.388708721982441E+00 RR=-3.995083272593634E-04
2457660.500000000 = A.D. 2016-Sep-29 00:00:00.0000 TDB 
 X = 1.015599096060887E+00 Y =-9.454975443296839E-01 Z =-4.487976390671271E-02
 VX= 1.009970111049921E-02 VY= 1.141560052920704E-02 VZ=-8.799629047131592E-06
 LT= 8.018244523647014E-03 RG= 1.388316002739101E+00 RR=-3.859208010096992E-04
